{
    "links": {
        "self": "http://www.neowsapp.com/rest/v1/neo/3404782?api_key=iIulBulltgU6a56xZRHN4H3l9WmuAYTsLGpBGhQ2"
    },
    "id": "3404782",
    "neo_reference_id": "3404782",
    "name": "(2008 EW5)",
    "designation": "2008 EW5",
    "nasa_jpl_url": "http://ssd.jpl.nasa.gov/sbdb.cgi?sstr=3404782",
    "absolute_magnitude_h": 24.1,
    "estimated_diameter": {
        "kilometers": {
            "estimated_diameter_min": 0.040230458,
            "estimated_diameter_max": 0.0899580388
        },
        "meters": {
            "estimated_diameter_min": 40.2304579834,
            "estimated_diameter_max": 89.9580388169
        },
        "miles": {
            "estimated_diameter_min": 0.0249980399,
            "estimated_diameter_max": 0.0558973165
        },
        "feet": {
            "estimated_diameter_min": 131.9896957704,
            "estimated_diameter_max": 295.1379320721
        }
    },
    "is_potentially_hazardous_asteroid": false,
    "close_approach_data": [
        {
            "close_approach_date": "2007-11-12",
            "close_approach_date_full": "2007-Nov-12 14:15",
            "epoch_date_close_approach": 1194876900000,
            "relative_velocity": {
                "kilometers_per_second": "13.1098346329",
                "kilometers_per_hour": "47195.4046784814",
                "miles_per_hour": "29325.3890903597"
            },
            "miss_distance": {
                "astronomical": "0.0344015309",
                "lunar": "13.3821955201",
                "kilometers": "5146395.747379183",
                "miles": "3197822.0324434054"
            },
            "orbiting_body": "Mars"
        },
        {
            "close_approach_date": "2008-02-26",
            "close_approach_date_full": "2008-Feb-26 23:45",
            "epoch_date_close_approach": 1204069500000,
            "relative_velocity": {
                "kilometers_per_second": "4.4192350744",
                "kilometers_per_hour": "15909.2462679202",
                "miles_per_hour": "9885.3869379752"
            },
            "miss_distance": {
                "astronomical": "0.1107405763",
                "lunar": "43.0780841807",
                "kilometers": "16566554.337052481",
                "miles": "10293979.5268709978"
            },
            "orbiting_body": "Earth"
        },
        {
            "close_approach_date": "2013-07-11",
            "close_approach_date_full": "2013-Jul-11 06:49",
            "epoch_date_close_approach": 1373525340000,
            "relative_velocity": {
                "kilometers_per_second": "11.5780573867",
                "kilometers_per_hour": "41681.0065922935",
                "miles_per_hour": "25898.956568417"
            },
            "miss_distance": {
                "astronomical": "0.0951129449",
                "lunar": "36.9989355661",
                "kilometers": "14228693.966467363",
                "miles": "8841300.4542130894"
            },
            "orbiting_body": "Mars"
        }
    ],
    "orbital_data": {
        "orbit_id": "11",
        "orbit_determination_date": "2017-04-06 09:04:08",
        "first_observation_date": "2008-03-04",
        "last_observation_date": "2008-04-05",
        "data_arc_in_days": 32,
        "observations_used": 29,
        "orbit_uncertainty": "7",
        "minimum_orbit_intersection": ".104525",
        "jupiter_tisserand_invariant": "3.704",
        "epoch_osculation": "2459000.5",
        "eccentricity": ".455165923781608",
        "semi_major_axis": "2.000827851992574",
        "inclination": "2.531502434592503",
        "ascending_node_longitude": "21.88098636831685",
        "orbital_period": "1033.744027083643",
        "perihelion_distance": "1.090119194412404",
        "perihelion_argument": "134.4016431685548",
        "aphelion_distance": "2.911536509572743",
        "perihelion_time": "2458655.843511129152",
        "mean_anomaly": "120.0261696733033",
        "mean_motion": ".3482486868781409",
        "equinox": "J2000",
        "orbit_class": {
            "orbit_class_type": "AMO",
            "orbit_class_description": "Near-Earth asteroid orbits similar to that of 1221 Amor",
            "orbit_class_range": "1.017 AU < q (perihelion) < 1.3 AU"
        }
    },
    "is_sentry_object": false
}